OBJECT_NAME,OBJECT_ID,EPOCH,MEAN_MOTION,ECCENTRICITY,INCLINATION,RA_OF_ASC_NODE,ARG_OF_PERICENTER,MEAN_ANOMALY,EPHEMERIS_TYPE,CLASSIFICATION_TYPE,NORAD_CAT_ID,ELEMENT_SET_NO,REV_AT_EPOCH,BSTAR,MEAN_MOTION_DOT,MEAN_MOTION_DDOT
DONGPO 02,2022-098J,2026-06-13T23:59:30.986880,15.74035042,.00020347,97.5515,295.9132,282.6019,77.5017,0,U,53452,999,21429,.78990934E-3,.113495E-2,0
DONGPO 01,2022-098K,2026-06-14T14:56:21.386400,15.72033275,.00017176,97.5584,297.1228,235.8294,124.2806,0,U,53453,999,21435,.64020141E-3,.84176E-3,0
STARLINK-4400,2022-099D,2026-06-14T07:41:49.368192,15.05594607,.00017037,97.3599,284.4815,145.2740,214.8598,0,U,53468,999,21051,.83129407E-3,.11939E-3,0
STARLINK-4621,2022-105AE,2026-06-14T14:08:35.411136,15.05662671,.00025096,97.3608,44.7482,81.5556,278.5956,0,U,53676,999,20781,-.12553388E-3,-.1869E-4,0
SHERPA-LTC2,2022-107BG,2026-06-14T11:11:16.400256,14.69687822,.03941052,53.2352,231.8493,218.4108,138.8201,0,U,53754,999,20214,.29778826E-3,.5811E-4,0
CENTISPACE-1 S3,2022-108A,2026-06-14T14:36:10.181088,14.61249732,.00092017,53.5334,65.9222,348.0550,12.0205,0,U,53757,999,20115,.12300292E-3,.422E-5,0
CENTISPACE-1 S4,2022-108B,2026-06-14T14:15:16.459200,14.61930044,.00084175,53.5310,63.5123,335.8306,24.2273,0,U,53758,999,20118,.15543868E-3,.594E-5,0
BLUEWALKER-3,2022-111AL,2026-06-14T09:15:46.629504,15.38241387,.00065427,53.2301,47.1227,152.5509,207.5843,0,U,53807,999,20977,.15477207E-3,.5529E-4,0
YUNHAI-1 03,2022-115A,2026-06-14T14:28:59.719008,14.32716336,.00058646,98.5531,163.7834,61.9616,298.2161,0,U,53877,999,19514,.11310087E-3,.264E-5,0
CENTISPACE-1 S5,2022-126A,2026-06-14T13:20:13.640352,14.63011083,.0014528,54.9979,223.4910,67.5791,292.6741,0,U,54020,999,19665,.13618009E-3,.514E-5,0
CENTISPACE-1 S6,2022-126B,2026-06-14T13:08:31.263648,14.62288683,.00163706,54.9982,225.3764,67.5589,292.7136,0,U,54021,999,19661,.10482058E-3,.344E-5,0
OTB-3-GAZELLE,2022-127A,2026-06-14T13:30:40.633056,14.42673632,.00127866,98.3943,157.3072,191.2547,168.8359,0,U,54023,999,19398,.51029612E-4,.126E-5,0
ASO-S,2022-129A,2026-06-14T13:35:36.725856,14.52060637,.001575,98.2747,170.6844,99.9937,260.3037,0,U,54029,999,19504,.57805136E-4,.19E-5,0
HJ-2E,2022-132A,2026-06-14T14:09:31.387104,15.22280944,.00208906,97.3791,170.0129,24.1059,336.1151,0,U,54035,999,20402,.31116095E-3,.7137E-4,0
COSMOS 2561,2022-137A,2026-06-14T12:25:54.892416,15.51642330,.0010982,96.9183,224.6187,45.0898,315.1245,0,U,54109,999,20593,.22736E-3,.13452E-3,0
GONETS-M 23,2022-139A,2026-06-14T14:33:10.252224,12.42890742,.00208024,82.5073,349.8986,225.5478,134.3900,0,U,54150,999,16532,.16192457E-3,.32E-6,0
GONETS-M 24,2022-139B,2026-06-14T13:54:25.663680,12.42891370,.00159216,82.4989,348.9769,236.0601,123.8966,0,U,54151,999,16532,.1514899E-3,.31E-6,0
GONETS-M 25,2022-139C,2026-06-14T13:34:49.098720,12.42889957,.0019847,82.5047,349.6703,234.8090,125.1131,0,U,54152,999,16532,.10872113E-3,.25E-6,0
SKIF-D,2022-139D,2026-06-14T06:12:46.327392,5.00428248,.00073842,89.9512,96.6685,200.4465,159.5680,0,U,54153,999,6396,0,.4E-7,0
MATS,2022-147A,2026-06-14T14:08:52.542528,15.05342632,.0011726,97.6820,167.1975,199.7152,160.3623,0,U,54227,999,19737,.19462543E-3,.2728E-4,0
JILIN-1 GAOFEN 03D54,2022-155D,2026-06-13T22:55:50.745216,15.96552713,.000496,97.6101,317.6380,265.0111,95.0599,0,U,54254,999,19978,.82774E-3,.346169E-2,.50336E-4
EOS-6 (OCEANSAT-3),2022-158A,2026-06-14T14:30:03.333600,14.46999043,.00013536,98.3538,263.8326,51.1296,309.0017,0,U,54361,999,18746,.77062516E-4,.237E-5,0
DONGPO 09,2022-167D,2026-06-14T13:03:34.386336,15.36283293,.00035049,97.6888,336.4331,121.9937,238.1647,0,U,54685,999,19504,.32611306E-3,.11455E-3,0
DONGPO 08,2022-167E,2026-06-14T12:28:47.626752,15.33599120,.0008473,97.6852,333.5985,169.1920,190.9505,0,U,54686,999,19491,.31002001E-3,.9999E-4,0
2022-167F,2022-167F,2026-06-14T13:40:55.293024,15.91642432,.00012661,97.6107,353.1654,224.9865,135.1305,0,U,54687,999,19641,.65042719E-3,.209522E-2,.1846636E-4
DONGPO 10,2022-167H,2026-06-14T12:40:23.082816,15.34406262,.0006247,97.6933,335.5521,117.5610,242.6267,0,U,54689,999,19495,.30935172E-3,.10231E-3,0
JILIN-1 GAOFEN 03D48,2022-167P,2026-06-14T15:46:42.930912,15.35172696,.00075706,97.6868,335.0640,122.3042,237.8935,0,U,54695,999,19500,.30235341E-3,.10248E-3,0
STAR VIBE,2023-001A,2026-06-14T13:48:51.935904,15.42552501,.00071238,97.3176,230.0287,119.8812,240.3144,0,U,55009,999,19182,.31070481E-3,.13421E-3,0
BRO-8,2023-001C,2026-06-14T14:14:21.505344,15.48917299,.00067925,97.3222,230.7395,130.7815,229.4027,0,U,55011,999,19180,.58419867E-3,.31534E-3,0
CONNECTA T1.2,2023-001D,2026-06-14T11:03:08.087328,15.50531438,.00066831,97.3279,236.1026,110.6108,249.5861,0,U,55012,999,19212,.6853233E-3,.39207E-3,0
