DONGPO 02               
1 53452U 22098J   26164.99966420  .00113495  00000+0  78991-3 0  9993
2 53452  97.5515 295.9132 0002034 282.6019  77.5017 15.74035042214297
DONGPO 01               
1 53453U 22098K   26165.62246975  .00084176  00000+0  64020-3 0  9992
2 53453  97.5584 297.1228 0001717 235.8294 124.2806 15.72033275214353
STARLINK-4400           
1 53468U 22099D   26165.32071028  .00011939  00000+0  83129-3 0  9999
2 53468  97.3599 284.4815 0001703 145.2740 214.8598 15.05594607210514
STARLINK-4621           
1 53676U 22105AE  26165.58929874 -.00001869  00000+0 -12553-3 0  9993
2 53676  97.3608  44.7482 0002509  81.5556 278.5956 15.05662671207816
SHERPA-LTC2             
1 53754U 22107BG  26165.46616204  .00005811  00000+0  29779-3 0  9996
2 53754  53.2352 231.8493 0394105 218.4108 138.8201 14.69687822202147
CENTISPACE-1 S3         
1 53757U 22108A   26165.60845117  .00000422  00000+0  12300-3 0  9998
2 53757  53.5334  65.9222 0009201 348.0550  12.0205 14.61249732201153
CENTISPACE-1 S4         
1 53758U 22108B   26165.59394050  .00000594  00000+0  15544-3 0  9995
2 53758  53.5310  63.5123 0008417 335.8306  24.2273 14.61930044201189
BLUEWALKER-3            
1 53807U 22111AL  26165.38595636  .00005529  00000+0  15477-3 0  9992
2 53807  53.2301  47.1227 0006542 152.5509 207.5843 15.38241387209772
YUNHAI-1 03             
1 53877U 22115A   26165.60346897  .00000264  00000+0  11310-3 0  9994
2 53877  98.5531 163.7834 0005864  61.9616 298.2161 14.32716336195142
CENTISPACE-1 S5         
1 54020U 22126A   26165.55571343  .00000514  00000+0  13618-3 0  9998
2 54020  54.9979 223.4910 0014528  67.5791 292.6741 14.63011083196657
CENTISPACE-1 S6         
1 54021U 22126B   26165.54758407  .00000344  00000+0  10482-3 0  9993
2 54021  54.9982 225.3764 0016370  67.5589 292.7136 14.62288683196618
OTB-3-GAZELLE           
1 54023U 22127A   26165.56297029  .00000126  00000+0  51030-4 0  9999
2 54023  98.3943 157.3072 0012786 191.2547 168.8359 14.42673632193988
ASO-S                   
1 54029U 22129A   26165.56639729  .00000190  00000+0  57805-4 0  9991
2 54029  98.2747 170.6844 0015750  99.9937 260.3037 14.52060637195047
HJ-2E                   
1 54035U 22132A   26165.58994661  .00007137  00000+0  31116-3 0  9997
2 54035  97.3791 170.0129 0020890  24.1059 336.1151 15.22280944204020
COSMOS 2561             
1 54109U 22137A   26165.51799644  .00013452  00000+0  22736-3 0  9996
2 54109  96.9183 224.6187 0010982  45.0898 315.1245 15.51642330205931
GONETS-M 23             
1 54150U 22139A   26165.60636866  .00000032  00000+0  16192-3 0  9999
2 54150  82.5073 349.8986 0020802 225.5478 134.3900 12.42890742165320
GONETS-M 24             
1 54151U 22139B   26165.57946370  .00000031  00000+0  15149-3 0  9990
2 54151  82.4989 348.9769 0015921 236.0601 123.8966 12.42891370165329
GONETS-M 25             
1 54152U 22139C   26165.56584605  .00000025  00000+0  10872-3 0  9990
2 54152  82.5047 349.6703 0019847 234.8090 125.1131 12.42889957165328
SKIF-D                  
1 54153U 22139D   26165.25886953  .00000004  00000+0  00000+0 0  9993
2 54153  89.9512  96.6685 0007384 200.4465 159.5680  5.00428248 63968
MATS                    
1 54227U 22147A   26165.58949702  .00002728  00000+0  19463-3 0  9994
2 54227  97.6820 167.1975 0011726 199.7152 160.3623 15.05342632197370
JILIN-1 GAOFEN 03D54    
1 54254U 22155D   26164.95544844  .00346169  50336-4  82774-3 0  9998
2 54254  97.6101 317.6380 0004960 265.0111  95.0599 15.96552713199784
EOS-6 (OCEANSAT-3)      
1 54361U 22158A   26165.60420525  .00000237  00000+0  77063-4 0  9999
2 54361  98.3538 263.8326 0001353  51.1296 309.0017 14.46999043187468
DONGPO 09               
1 54685U 22167D   26165.54414799  .00011455  00000+0  32611-3 0  9990
2 54685  97.6888 336.4331 0003504 121.9937 238.1647 15.36283293195045
DONGPO 08               
1 54686U 22167E   26165.51999568  .00009999  00000+0  31002-3 0  9993
2 54686  97.6852 333.5985 0008473 169.1920 190.9505 15.33599120194915
2022-167F               
1 54687U 22167F   26165.57008441  .00209522  18466-4  65043-3 0  9997
2 54687  97.6107 353.1654 0001266 224.9865 135.1305 15.91642432196416
DONGPO 10               
1 54689U 22167H   26165.52804494  .00010231  00000+0  30935-3 0  9995
2 54689  97.6933 335.5521 0006247 117.5610 242.6267 15.34406262194955
JILIN-1 GAOFEN 03D48    
1 54695U 22167P   26165.65744133  .00010248  00000+0  30235-3 0  9990
2 54695  97.6868 335.0640 0007570 122.3042 237.8935 15.35172696195006
STAR VIBE               
1 55009U 23001A   26165.57560111  .00013421  00000+0  31070-3 0  9995
2 55009  97.3176 230.0287 0007123 119.8812 240.3144 15.42552501191828
BRO-8                   
1 55011U 23001C   26165.59330446  .00031534  00000+0  58420-3 0  9999
2 55011  97.3222 230.7395 0006792 130.7815 229.4027 15.48917299191807
CONNECTA T1.2           
1 55012U 23001D   26165.46051027  .00039207  00000+0  68532-3 0  9991
2 55012  97.3279 236.1026 0006683 110.6108 249.5861 15.50531438192127
